<?xml version="1.0" encoding="UTF-8"?>
<kml xmlns="http://www.opengis.net/kml/2.2" xmlns:gx="http://www.google.com/kml/ext/2.2" xmlns:kml="http://www.opengis.net/kml/2.2" xmlns:atom="http://www.w3.org/2005/Atom">
<Document>
	<name>ground area1.kml</name>
	<StyleMap id="m_ylw-pushpin">
		<Pair>
			<key>normal</key>
			<styleUrl>#s_ylw-pushpin</styleUrl>
		</Pair>
		<Pair>
			<key>highlight</key>
			<styleUrl>#s_ylw-pushpin_hl</styleUrl>
		</Pair>
	</StyleMap>
	<Style id="s_ylw-pushpin">
		<IconStyle>
			<scale>1.1</scale>
			<Icon>
				<href>http://maps.google.com/mapfiles/kml/pushpin/ylw-pushpin.png</href>
			</Icon>
			<hotSpot x="20" y="2" xunits="pixels" yunits="pixels"/>
		</IconStyle>
		<LineStyle>
			<color>ff000000</color>
		</LineStyle>
		<PolyStyle>
			<outline>0</outline>
		</PolyStyle>
	</Style>
	<Style id="s_ylw-pushpin_hl">
		<IconStyle>
			<scale>1.3</scale>
			<Icon>
				<href>http://maps.google.com/mapfiles/kml/pushpin/ylw-pushpin.png</href>
			</Icon>
			<hotSpot x="20" y="2" xunits="pixels" yunits="pixels"/>
		</IconStyle>
		<LineStyle>
			<color>ff000000</color>
		</LineStyle>
		<PolyStyle>
			<outline>0</outline>
		</PolyStyle>
	</Style>
	<Placemark>
		<name>ground area1</name>
		<styleUrl>#m_ylw-pushpin</styleUrl>
		<Polygon>
			<tessellate>1</tessellate>
			<outerBoundaryIs>
				<LinearRing>
					<coordinates>
						76.90392945074835,8.543931330546954,0 76.90399278586187,8.543903783937749,0 76.90410400402027,8.543908508247931,0 76.90418129736177,8.543938016746514,0 76.90426398063846,8.543999832500086,0 76.90431496654239,8.544056261451665,0 76.90433843796819,8.544152534720945,0 76.90431198183781,8.54425818435457,0 76.90428299828656,8.544328796614009,0 76.90422732799598,8.544390654628277,0 76.90416673315123,8.544424403208556,0 76.90409055018455,8.544387732564648,0 76.90400947731501,8.544357026931943,0 76.90393252790804,8.544257708218343,0 76.90388486487858,8.544133901318249,0 76.90386343537281,8.543998002785701,0 76.90392945074835,8.543931330546954,0 
					</coordinates>
				</LinearRing>
			</outerBoundaryIs>
		</Polygon>
		<atom:link rel="app" href="https://www.google.com/earth/about/versions/#earth-pro" title="Google Earth Pro 7.3.6.10201"></atom:link>
	</Placemark>
</Document>
</kml>
